[{"name":"INMARSAT 4-F1","l1":"1 28628U 05009A   26183.40402043  .00000041  00000+0  00000+0 0  9990","l2":"2 28628   5.1874  42.7719 0002927  61.5295 139.7012  1.00271734 77823","cat":"geostationary"},{"name":"HINODE (SOLAR-B)","l1":"1 29479U 06041A   26183.51495064  .00000853  00000+0  15481-3 0  9993","l2":"2 29479  98.0543 199.4413 0016190 236.7494 123.2161 14.68644562 57122","cat":"science"},{"name":"SHIJIAN-6 02B (SJ-6 02B)","l1":"1 29506U 06046B   26183.80825351  .00001159  00000+0  94389-4 0  9992","l2":"2 29506  97.7148 212.7703 0014904  15.7989 344.3697 15.01414119 73080","cat":"science"},{"name":"SAUDISAT 2","l1":"1 28371U 04025F   26183.27793993  .00000291  00000+0  76076-4 0  9992","l2":"2 28371  98.5511 183.6500 0023503 249.4990 110.3685 14.56692512167947","cat":"other"},{"name":"COSMOS 2407","l1":"1 28380U 04028A   26183.61452117  .00000067  00000+0  52989-4 0  9991","l2":"2 28380  82.9597  63.4076 0038476 207.5228 170.1027 13.76335862102008","cat":"other"},{"name":"COSMOS 2414","l1":"1 28521U 05002A   26183.09912408  .00000043  00000+0  22877-4 0  9994","l2":"2 28521  82.9488  32.3648 0038761 287.5954  72.0978 13.87927307 85889","cat":"other"},{"name":"SJ-7","l1":"1 28737U 05024A   26183.54416314  .00008609  00000+0  38160-3 0  9999","l2":"2 28737  97.7268 214.0620 0014663 344.8689  15.2105 15.21775273150364","cat":"other"},{"name":"CUBESAT XI-V","l1":"1 28895U 05043F   26183.69034545  .00001723  00000+0  27823-3 0  9997","l2":"2 28895  98.3002 339.6391 0014699 152.1460 208.0536 14.72675255104034","cat":"other"},{"name":"DMSP 5D-3 F17 (USA 191)","l1":"1 29522U 06050A   26183.72616954  .00000040  00000+0  42834-4 0  9999","l2":"2 29522  98.7380 189.9783 0010483  18.2426 341.9121 14.14995033 14624","cat":"science"},{"name":"LAPAN-TUBSAT","l1":"1 29709U 07001A   26183.74202993  .00000293  00000+0  40167-4 0  9996","l2":"2 29709  98.1340 183.3170 0013111 130.5898 229.6460 14.85963845 53468","cat":"other"},{"name":"HAIYANG-1B","l1":"1 31113U 07010A   26183.45731441  .00000106  00000+0  56083-4 0  9998","l2":"2 31113  98.3502 164.7107 0014021 151.3096 208.8862 14.31030796  2827","cat":"other"},{"name":"COSMO-SKYMED 2","l1":"1 32376U 07059A   26183.75597183  .00000496  00000+0  68836-4 0  9990","l2":"2 32376  97.8889   7.1282 0001319  90.5314 269.6050 14.82158542  4314","cat":"other"},{"name":"CARTOSAT-2A","l1":"1 32783U 08021A   26183.87501733  .00000369  00000+0  56374-4 0  9994","l2":"2 32783  97.7624 232.0478 0013220  63.5410 296.7156 14.79260539981126","cat":"science"},{"name":"CUTE-1.7+APD II (CO-65)","l1":"1 32785U 08021C   26183.89264118  .00007348  00000+0  46082-3 0  9999","l2":"2 32785  97.8286 165.6398 0008120 347.2751  12.8271 15.09606626987562","cat":"other"},{"name":"SEEDS II (CO-66)","l1":"1 32791U 08021J   26183.80114904  .00020103  00000+0  62654-3 0  9991","l2":"2 32791  97.7521 182.4499 0001504 186.8338 173.2883 15.33292646989682","cat":"other"},{"name":"YUBILEINY (RS30)","l1":"1 32953U 08025A   26183.87216169  .00000060  00000+0  36410-3 0  9999","l2":"2 32953  82.5047 345.6812 0018506 277.6074  82.2904 12.43180358821643","cat":"other"},{"name":"FENGYUN 3A","l1":"1 32958U 08026A   26183.83562919  .00000090  00000+0  63361-4 0  9997","l2":"2 32958  98.6885 124.3762 0009882  83.5691 276.6610 14.19574446937627","cat":"science"},{"name":"HUANJING 1A (HJ-1A)","l1":"1 33320U 08041A   26183.87676713  .00001223  00000+0  15245-3 0  9996","l2":"2 33320  97.6686 169.1088 0020710  86.7514 273.6069 14.84024072960739","cat":"other"},{"name":"HUANJING 1B (HJ-1B)","l1":"1 33321U 08041B   26183.85301640  .00000985  00000+0  12506-3 0  9990","l2":"2 33321  97.6520 172.2102 0037459 130.2533 230.1968 14.83343974960733","cat":"other"},{"name":"SHIJIAN-6 03A (SJ-6 03A)","l1":"1 33408U 08053A   26183.87701604  .00004607  00000+0  23447-3 0  9996","l2":"2 33408  97.8401 217.7436 0010012 325.6393  34.4191 15.17315572965340","cat":"classified"},{"name":"SHIJIAN-6 03B (SJ-6 03B)","l1":"1 33409U 08053B   26183.86419056  .00002013  00000+0  14847-3 0  9996","l2":"2 33409  97.8567 204.0143 0019144 352.3910   7.7022 15.04354004965104","cat":"classified"},{"name":"CHUANGXIN 1-02 (CX-1-02)","l1":"1 33434U 08056B   26183.82919131  .00000108  00000+0  58634-4 0  9998","l2":"2 33434  98.6125 209.9396 0015518  93.8939 266.4018 14.30156433920850","cat":"science"}]